0 EUTE 117 WEST A(SATMEX 8
1 39122U 13012A   13280.40144075 -.00000022  00000-0  10000-3 0  1196
2 39122 000.0523 044.0977 0002063 156.7186 203.1290 01.00271229  1995
0 EUTE 117 WEST A(SATMEX 8
1 39122U 13012A   13282.54203773 -.00000027  00000-0  10000-3 0  1201
2 39122 000.0465 056.7531 0002259 152.9265 246.9810 01.00271177  2018
0 EUTE 117 WEST A(SATMEX 8
1 39122U 13012A   13283.53865888  .00000000  00000-0  10000-3 0  1224
2 39122 000.0436 072.0390 0002757 133.6953 250.7122 01.00270098  2024
0 EUTE 117 WEST A(SATMEX 8
1 39122U 13012A   13283.57772787 -.00000030  00000-0  10000-3 0  1216
2 39122 000.0525 057.8830 0002254 151.3249 261.3192 01.00271279  2027
0 EUTE 117 WEST A(SATMEX 8
1 39122U 13012A   13285.40238409 -.00000036  00000-0  10000-3 0  1225
2 39122 000.0565 058.8789 0002248 150.2109 200.1085 01.00271558  2045
0 EUTE 117 WEST A(SATMEX 8
1 39122U 13012A   13286.43845041 -.00000038  00000-0  10000-3 0  1238
2 39122 000.0586 059.6732 0002247 149.2098 214.3196 01.00271732  2054
0 EUTE 117 WEST A(SATMEX 8
1 39122U 13012A   13288.38624625 -.00000038  00000-0  10000-3 0  1248
2 39122 000.0633 060.7358 0002300 146.7495 198.8489 01.00272279  2077
0 EUTE 117 WEST A(SATMEX 8
1 39122U 13012A   13290.40508536 -.00000034  00000-0  10000-3 0  1253
2 39122 000.0241 257.7637 0002476 306.5537 210.7622 01.00268355  2092
0 EUTE 117 WEST A(SATMEX 8
1 39122U 13012A   13290.51498146  .00000000  00000-0  10000-3 0  1252
2 39122 000.0585 073.9291 0002657 112.4306 268.4785 01.00270687  2109
0 EUTE 117 WEST A(SATMEX 8
1 39122U 13012A   13292.41716604 -.00000031  00000-0  10000-3 0  1261
2 39122 000.0199 258.4015 0002155 300.9967 222.0311 01.00273179  2115
0 EUTE 117 WEST A(SATMEX 8
1 39122U 13012A   13293.18784831 -.00000030  00000-0  10000-3 0  1273
2 39122 000.0162 261.1372 0002381 295.6476 142.8649 01.00274357  2110
0 EUTE 117 WEST A(SATMEX 8
1 39122U 13012A   13294.39852463 -.00000028  00000-0  10000-3 0  1282
2 39122 000.0140 262.5213 0002358 294.4640 219.7136 01.00274657  2139
